[Satellite]
VERSION=1.1
NAME=APRIZESAT 10
NICKNAME=APRIZESAT 10
TLE1=1 40019U 14033K   15055.33041652  .00000503  00000-0  94548-4 0  9997
TLE2=2 40019  97.9505 307.5745 0085675 125.5207 235.4009 14.66483279 36524
